[
    {
        "Altitude(m)": 624792.7677825836,
        "Argument of Periapsis(deg)": 0.0,
        "Eccentricity": 0.0,
        "Inclination(deg)": 60.0,
        "Latitude(deg)": -59.147074567488374,
        "Longitude(deg)": 14.026572610433028,
        "Mean Anomaly(deg)": -98.18179999999994,
        "RAAN(deg)": 220.00000000000003,
        "Satellite Name": "Test1 984",
        "Satellite Number": 984,
        "Semi-Major Axis(m)": 6980739.136638005,
        "Time(s)": 0
    },
    {
        "Altitude(m)": 624842.1591687758,
        "Argument of Periapsis(deg)": 0.00010418945913296404,
        "Eccentricity": 0.0,
        "Inclination(deg)": 60.0,
        "Latitude(deg)": -59.28915615363587,
        "Longitude(deg)": 15.156077174970157,
        "Mean Anomaly(deg)": -97.56169385453809,
        "RAAN(deg)": 219.99957995086027,
        "Satellite Name": "Test1 984",
        "Satellite Number": 984,
        "Semi-Major Axis(m)": 6980739.136638005,
        "Time(s)": 10
    }
]